{"type": "FeatureCollection", "features": [ {"type": "Feature", "properties": {"norad_id": 65304, "name": "DRAGON CRS-33", "group": "stations", "lat": 38.883838730038924, "lon": 165.24157782885302, "alt_km": 414.63365223308483, "timestamp": "2025-12-16T03:53:25.836413+00:00", "meta": {"OBJECT_NAME": "DRAGON CRS-33", "OBJECT_ID": "2025-186A", "EPOCH": "2025-12-15T05:59:35.690496", "MEAN_MOTION": 15.49601155, "ECCENTRICITY": 0.00031934, "INCLINATION": 51.6306, "RA_OF_ASC_NODE": 130.0501, "ARG_OF_PERICENTER": 251.9008, "MEAN_ANOMALY": 108.1633, "EPHEMERIS_TYPE": 0, "CLASSIFICATION_TYPE": "U", "NORAD_CAT_ID": 65304, "ELEMENT_SET_NO": 999, "REV_AT_EPOCH": 11, "BSTAR": 0.00013467464, "MEAN_MOTION_DOT": 7.132e-05, "MEAN_MOTION_DDOT": 0}, "tle": {"line1": "1 65304U 25186A   25349.24971864  .00007132  00000+0  13467-3 0  9990", "line2": "2 65304  51.6306 130.0501 0003193 251.9008 108.1633 15.49601155   113"}}, "geometry": {"type": "Point", "coordinates": [165.24157782885302, 38.883838730038924]}}, {"type": "Feature", "properties": {"norad_id": 65586, "name": "PROGRESS-MS 32", "group": "stations", "lat": 38.88383911990295, "lon": 165.24157849093837, "alt_km": 414.6336521811136, "timestamp": "2025-12-16T03:53:25.836423+00:00", "meta": {"OBJECT_NAME": "PROGRESS-MS 32", "OBJECT_ID": "2025-204A", "EPOCH": "2025-12-15T05:59:35.690496", "MEAN_MOTION": 15.49601155, "ECCENTRICITY": 0.00031934, "INCLINATION": 51.6306, "RA_OF_ASC_NODE": 130.0501, "ARG_OF_PERICENTER": 251.9008, "MEAN_ANOMALY": 108.1633, "EPHEMERIS_TYPE": 0, "CLASSIFICATION_TYPE": "U", "NORAD_CAT_ID": 65586, "ELEMENT_SET_NO": 999, "REV_AT_EPOCH": 27, "BSTAR": 0.00013467464, "MEAN_MOTION_DOT": 7.132e-05, "MEAN_MOTION_DDOT": 0}, "tle": {"line1": "1 65586U 25204A   25349.24971864  .00007132  00000+0  13467-3 0  9993", "line2": "2 65586  51.6306 130.0501 0003193 251.9008 108.1633 15.49601155   272"}}, "geometry": {"type": "Point", "coordinates": [165.24157849093837, 38.88383911990295]}}, {"type": "Feature", "properties": {"norad_id": 65616, "name": "CYGNUS NG-23", "group": "stations", "lat": 38.883839509766936, "lon": 165.24157915302374, "alt_km": 414.6336521291414, "timestamp": "2025-12-16T03:53:25.836433+00:00", "meta": {"OBJECT_NAME": "CYGNUS NG-23", "OBJECT_ID": "2025-208A", "EPOCH": "2025-12-15T05:59:35.690496", "MEAN_MOTION": 15.49601155, "ECCENTRICITY": 0.00031934, "INCLINATION": 51.6306, "RA_OF_ASC_NODE": 130.0501, "ARG_OF_PERICENTER": 251.9008, "MEAN_ANOMALY": 108.1633, "EPHEMERIS_TYPE": 0, "CLASSIFICATION_TYPE": "U", "NORAD_CAT_ID": 65616, "ELEMENT_SET_NO": 999, "REV_AT_EPOCH": 22, "BSTAR": 0.00013467464, "MEAN_MOTION_DOT": 7.132e-05, "MEAN_MOTION_DDOT": 0}, "tle": {"line1": "1 65616U 25208A   25349.24971864  .00007132  00000+0  13467-3 0  9991", "line2": "2 65616  51.6306 130.0501 0003193 251.9008 108.1633 15.49601155   221"}}, "geometry": {"type": "Point", "coordinates": [165.24157915302374, 38.883839509766936]}}, {"type": "Feature", "properties": {"norad_id": 65729, "name": "DRAGONFLY", "group": "stations", "lat": -33.87335260721369, "lon": 86.07892150739515, "alt_km": 349.52879501455755, "timestamp": "2025-12-16T03:53:25.836443+00:00", "meta": {"OBJECT_NAME": "DRAGONFLY", "OBJECT_ID": "1998-067XH", "EPOCH": "2025-12-14T18:32:10.159584", "MEAN_MOTION": 15.72674024, "ECCENTRICITY": 0.00069619, "INCLINATION": 51.6244, "RA_OF_ASC_NODE": 125.3489, "ARG_OF_PERICENTER": 292.1448, "MEAN_ANOMALY": 67.8811, "EPHEMERIS_TYPE": 0, "CLASSIFICATION_TYPE": "U", "NORAD_CAT_ID": 65729, "ELEMENT_SET_NO": 999, "REV_AT_EPOCH": 1348, "BSTAR": 0.0010954429, "MEAN_MOTION_DOT": 0.00152909, "MEAN_MOTION_DDOT": 0}, "tle": {"line1": "1 65729U 98067XH  25348.77233981  .00152909  00000+0  10954-2 0  9997", "line2": "2 65729  51.6244 125.3489 0006961 292.1448  67.8811 15.72674024 13482"}}, "geometry": {"type": "Point", "coordinates": [86.07892150739515, -33.87335260721369]}}, {"type": "Feature", "properties": {"norad_id": 65731, "name": "1998-067XK", "group": "stations", "lat": -50.35904250832988, "lon": 12.879574060528078, "alt_km": 370.5822374150648, "timestamp": "2025-12-16T03:53:25.836454+00:00", "meta": {"OBJECT_NAME": "1998-067XK", "OBJECT_ID": "1998-067XK", "EPOCH": "2025-12-15T02:17:17.539296", "MEAN_MOTION": 15.66227391, "ECCENTRICITY": 0.00048341, "INCLINATION": 51.628, "RA_OF_ASC_NODE": 125.2769, "ARG_OF_PERICENTER": 261.301, "MEAN_ANOMALY": 98.7438, "EPHEMERIS_TYPE": 0, "CLASSIFICATION_TYPE": "U", "NORAD_CAT_ID": 65731, "ELEMENT_SET_NO": 999, "REV_AT_EPOCH": 1351, "BSTAR": 0.00072558706, "MEAN_MOTION_DOT": 0.00076548, "MEAN_MOTION_DDOT": 0}, "tle": {"line1": "1 65731U 98067XK  25349.09534189  .00076548  00000+0  72559-3 0  9994", "line2": "2 65731  51.6280 125.2769 0004834 261.3010  98.7438 15.66227391 13511"}}, "geometry": {"type": "Point", "coordinates": [12.879574060528078, -50.35904250832988]}}, {"type": "Feature", "properties": {"norad_id": 65732, "name": "RSP-03", "group": "stations", "lat": -51.583868669542795, "lon": 26.83515374978498, "alt_km": 361.22938266680194, "timestamp": "2025-12-16T03:53:25.836467+00:00", "meta": {"OBJECT_NAME": "RSP-03", "OBJECT_ID": "1998-067XL", "EPOCH": "2025-12-15T02:17:54.297312", "MEAN_MOTION": 15.6926161, "ECCENTRICITY": 0.00056198, "INCLINATION": 51.6255, "RA_OF_ASC_NODE": 124.5189, "ARG_OF_PERICENTER": 267.5982, "MEAN_ANOMALY": 92.4371, "EPHEMERIS_TYPE": 0, "CLASSIFICATION_TYPE": "U", "NORAD_CAT_ID": 65732, "ELEMENT_SET_NO": 999, "REV_AT_EPOCH": 1353, "BSTAR": 0.00084848916, "MEAN_MOTION_DOT": 0.00101794, "MEAN_MOTION_DDOT": 0}, "tle": {"line1": "1 65732U 98067XL  25349.09576733  .00101794  00000+0  84849-3 0  9993", "line2": "2 65732  51.6255 124.5189 0005619 267.5982  92.4371 15.69261610 13534"}}, "geometry": {"type": "Point", "coordinates": [26.83515374978498, -51.583868669542795]}}, {"type": "Feature", "properties": {"norad_id": 65733, "name": "GHS-01", "group": "stations", "lat": -51.48440997937051, "lon": 22.212924360906122, "alt_km": 341.54944982234247, "timestamp": "2025-12-16T03:53:25.836478+00:00", "meta": {"OBJECT_NAME": "GHS-01", "OBJECT_ID": "1998-067XM", "EPOCH": "2025-12-15T02:24:56.017440", "MEAN_MOTION": 15.759092, "ECCENTRICITY": 0.00074389, "INCLINATION": 51.6273, "RA_OF_ASC_NODE": 123.049, "ARG_OF_PERICENTER": 297.3204, "MEAN_ANOMALY": 62.7038, "EPHEMERIS_TYPE": 0, "CLASSIFICATION_TYPE": "U", "NORAD_CAT_ID": 65733, "ELEMENT_SET_NO": 999, "REV_AT_EPOCH": 1355, "BSTAR": 0.0010424079, "MEAN_MOTION_DOT": 0.00167711, "MEAN_MOTION_DDOT": 0}, "tle": {"line1": "1 65733U 98067XM  25349.10064835  .00167711  00000+0  10424-2 0  9999", "line2": "2 65733  51.6273 123.0490 0007438 297.3204  62.7038 15.75909200 13556"}}, "geometry": {"type": "Point", "coordinates": [22.212924360906122, -51.48440997937051]}}, {"type": "Feature", "properties": {"norad_id": 65941, "name": "YOTSUBA-KULOVER", "group": "stations", "lat": -41.83671673823011, "lon": 77.58315187433578, "alt_km": 391.1076261353728, "timestamp": "2025-12-16T03:53:25.836489+00:00", "meta": {"OBJECT_NAME": "YOTSUBA-KULOVER", "OBJECT_ID": "1998-067XN", "EPOCH": "2025-12-14T10:37:31.352736", "MEAN_MOTION": 15.59735422, "ECCENTRICITY": 0.00013863, "INCLINATION": 51.6284, "RA_OF_ASC_NODE": 131.4172, "ARG_OF_PERICENTER": 271.9783, "MEAN_ANOMALY": 88.1051, "EPHEMERIS_TYPE": 0, "CLASSIFICATION_TYPE": "U", "NORAD_CAT_ID": 65941, "ELEMENT_SET_NO": 999, "REV_AT_EPOCH": 1012, "BSTAR": 0.00091507112, "MEAN_MOTION_DOT": 0.00074853, "MEAN_MOTION_DDOT": 0}, "tle": {"line1": "1 65941U 98067XN  25348.44272399  .00074853  00000+0  91507-3 0  9998", "line2": "2 65941  51.6284 131.4172 0001386 271.9783  88.1051 15.59735422 10127"}}, "geometry": {"type": "Point", "coordinates": [77.58315187433578, -41.83671673823011]}}, {"type": "Feature", "properties": {"norad_id": 65942, "name": "BOTAN", "group": "stations", "lat": -34.07168552631545, "lon": 89.58111256968208, "alt_km": 379.82753093722295, "timestamp": "2025-12-16T03:53:25.836501+00:00", "meta": {"OBJECT_NAME": "BOTAN", "OBJECT_ID": "1998-067XP", "EPOCH": "2025-12-13T19:19:30.936288", "MEAN_MOTION": 15.63168137, "ECCENTRICITY": 0.00029855, "INCLINATION": 51.6273, "RA_OF_ASC_NODE": 133.9097, "ARG_OF_PERICENTER": 245.5023, "MEAN_ANOMALY": 114.566, "EPHEMERIS_TYPE": 0, "CLASSIFICATION_TYPE": "U", "NORAD_CAT_ID": 65942, "ELEMENT_SET_NO": 999, "REV_AT_EPOCH": 1003, "BSTAR": 0.0012359991, "MEAN_MOTION_DOT": 0.00116317, "MEAN_MOTION_DDOT": 0}, "tle": {"line1": "1 65942U 98067XP  25347.80521917  .00116317  00000+0  12360-2 0  9992", "line2": "2 65942  51.6273 133.9097 0002985 245.5023 114.5660 15.63168137 10037"}}, "geometry": {"type": "Point", "coordinates": [89.58111256968208, -34.07168552631545]}}, {"type": "Feature", "properties": {"norad_id": 65943, "name": "E-KAGAKU-1", "group": "stations", "lat": -42.20180492316817, "lon": 76.84018454491537, "alt_km": 391.96016878240516, "timestamp": "2025-12-16T03:53:25.836511+00:00", "meta": {"OBJECT_NAME": "E-KAGAKU-1", "OBJECT_ID": "1998-067XQ", "EPOCH": "2025-12-14T15:14:24.603072", "MEAN_MOTION": 15.59736251, "ECCENTRICITY": 0.00018352, "INCLINATION": 51.6284, "RA_OF_ASC_NODE": 130.4549, "ARG_OF_PERICENTER": 215.0597, "MEAN_ANOMALY": 145.0275, "EPHEMERIS_TYPE": 0, "CLASSIFICATION_TYPE": "U", "NORAD_CAT_ID": 65943, "ELEMENT_SET_NO": 999, "REV_AT_EPOCH": 1015, "BSTAR": 0.00073893681, "MEAN_MOTION_DOT": 0.00060238, "MEAN_MOTION_DDOT": 0}, "tle": {"line1": "1 65943U 98067XQ  25348.63500698  .00060238  00000+0  73894-3 0  9998", "line2": "2 65943  51.6284 130.4549 0001835 215.0597 145.0275 15.59736251 10152"}}, "geometry": {"type": "Point", "coordinates": [76.84018454491537, -42.20180492316817]}}]}